TEVEL2-9                
1 63237U 25052AD  26173.44730229  .00012471  00000+0  40513-3 0  9995
2 63237  97.3936  68.7627 0008184 116.4765 243.7317 15.32032450 70837
TEVEL2-7                
1 63238U 25052AE  26173.22791571  .00011733  00000+0  38497-3 0  9997
2 63238  97.3939  68.4578 0008225 117.2661 242.9419 15.31728224 70792
TEVEL2-8                
1 63239U 25052AF  26173.69351598  .00011938  00000+0  39166-3 0  9991
2 63239  97.3936  68.8989 0008249 116.5342 243.6747 15.31724980 70869
INNOSAT 16 (RS92S7)     
1 64878U 25155C   26173.84002173  .00004509  00000+0  18059-3 0  9998
2 64878  97.4563 140.9496 0011201 156.4610 203.7143 15.25506710 81539
GEOSCAN 6 (RS92S6)      
1 64879U 25155D   26173.80539449  .00007242  00000+0  24990-3 0  9994
2 64879  97.4556 142.3789 0009009 144.8057 215.3780 15.30238301 81622
GEOSCAN 1 (RS92S1)      
1 64880U 25155E   26173.80564634  .00008789  00000+0  29712-3 0  9994
2 64880  97.4553 142.5320 0008957 144.6223 215.5614 15.30843580 81638
239ALFEROV (RS61S)      
1 64881U 25155F   26173.83247686  .00010979  00000+0  34568-3 0  9992
2 64881  97.4553 143.1395 0008678 142.2917 217.8935 15.33067874 81674
GEOSCAN 2 (RS92S2)      
1 64890U 25155Q   26173.79833575  .00008715  00000+0  29218-3 0  9996
2 64890  97.4552 142.6794 0008665 133.0504 227.1464 15.31114407 81647
GEOSCAN 5 (RS92S5)      
1 64891U 25155R   26173.82033470  .00011095  00000+0  34596-3 0  9997
2 64891  97.4545 143.2669 0007463 145.7462 214.4263 15.33385333 81686
GEOSCAN 4 (RS92S4)      
1 64892U 25155S   26173.80395826  .00012074  00000+0  37437-3 0  9997
2 64892  97.4548 143.3003 0007533 145.2712 214.9023 15.33541520 81685
GEOSCAN 3 (RS92S3)      
1 64893U 25155T   26173.79741084  .00014218  00000+0  41318-3 0  9992
2 64893  97.4537 143.7397 0007492 143.9134 216.2616 15.35552038 81716
INNOSAT 3 (RS92S0)      
1 64894U 25155U   26173.82139348  .00031748  00000+0  69194-3 0  9990
2 64894  97.4486 145.4532 0007269 137.9921 222.1886 15.44173310 81839
KNACKSAT-2              
1 67683U 98067XZ  26173.53867741  .00038699  00000+0  46548-3 0  9994
2 67683  51.6293 267.5508 0008770 238.8673 121.1461 15.60406263 21114
